STARLINK-35457          
1 66433U 25259M   25336.50006943  .00093795  00000+0  15890-2 0  9998
2 66433  42.9994 107.1799 0001298 256.8528  34.7189 15.50517997  4635
STARLINK-35389          
1 66434U 25259N   25336.50006943 -.00152529  00000+0 -26381-2 0  9999
2 66434  42.9997 107.1741 0001246 252.4191  41.0827 15.50653498  4634
STARLINK-35502          
1 66435U 25259P   25336.50006943  .00062482  00000+0  10642-2 0  9999
2 66435  42.9996 107.1707 0001388 259.2339  36.1524 15.50529900  4631
STARLINK-35501          
1 66436U 25259Q   25336.50006943  .00063420  00000+0  10802-2 0  9991
2 66436  42.9996 107.1604 0001382 258.3965  40.8142 15.50524110  4633
STARLINK-35474          
1 66437U 25259R   25336.50006943  .00061088  00000+0  10411-2 0  9996
2 66437  42.9996 107.1557 0001412 259.2112  41.9116 15.50521905  4631
STARLINK-34681          
1 66438U 25259S   25336.50006943  .00053379  00000+0  91099-3 0  9993
2 66438  42.9996 107.1510 0001463 256.3763  46.6533 15.50532998  4524
STARLINK-35327          
1 66439U 25259T   25336.50006943  .00061024  00000+0  10397-2 0  9991
2 66439  42.9996 107.1671 0001301 257.0813  40.2274 15.50531697  4637
STARLINK-35405          
1 66440U 25259U   25336.50006943  .00050964  00000+0  87017-3 0  9998
2 66440  42.9996 107.1468 0001408 257.0732  47.8826 15.50537327  4633
STARLINK-35426          
1 66441U 25259V   25336.50006943  .00051970  00000+0  88727-3 0  9996
2 66441  42.9996 107.1413 0001374 255.7422  51.1294 15.50532537  4632
STARLINK-34724          
1 66442U 25259W   25336.50006943 -.00093110  00000+0 -15989-2 0  9990
2 66442  42.9997 107.1371 0001746 270.1367  38.7426 15.50600873  4636
STARLINK-35219          
1 66443U 25259X   25336.50006943 -.00077961  00000+0 -13358-2 0  9995
2 66443  42.9993 107.1315 0001672 266.6264  44.1741 15.50589184  4525
STARLINK-35360          
1 66444U 25259Y   25336.50006943  .00054416  00000+0  92832-3 0  9999
2 66444  42.9996 107.1171 0001487 252.1181  64.3204 15.50536589  4632
