CCSDS_OMM_VERS = 2.0
CREATION_DATE  = 
ORIGINATOR     = 

OBJECT_NAME    = STARLINK-35457
OBJECT_ID      = 2025-259M
CENTER_NAME    = EARTH
REF_FRAME      = TEME
TIME_SYSTEM    = UTC
MEAN_ELEMENT_THEORY = SGP/SGP4

EPOCH          = 2025-12-02T12:00:05.998752
MEAN_MOTION    = 15.50517997
ECCENTRICITY   = .0001298
INCLINATION    = 42.9994
RA_OF_ASC_NODE = 107.1799
ARG_OF_PERICENTER = 256.8528
MEAN_ANOMALY   = 34.7189

EPHEMERIS_TYPE = 0
CLASSIFICATION_TYPE = U
NORAD_CAT_ID   = 66433
ELEMENT_SET_NO = 999
REV_AT_EPOCH   = 463
BSTAR          = .1589E-2
MEAN_MOTION_DOT = .93795E-3
MEAN_MOTION_DDOT = 0

CCSDS_OMM_VERS = 2.0
CREATION_DATE  = 
ORIGINATOR     = 

OBJECT_NAME    = STARLINK-35389
OBJECT_ID      = 2025-259N
CENTER_NAME    = EARTH
REF_FRAME      = TEME
TIME_SYSTEM    = UTC
MEAN_ELEMENT_THEORY = SGP/SGP4

EPOCH          = 2025-12-02T12:00:05.998752
MEAN_MOTION    = 15.50653498
ECCENTRICITY   = .0001246
INCLINATION    = 42.9997
RA_OF_ASC_NODE = 107.1741
ARG_OF_PERICENTER = 252.4191
MEAN_ANOMALY   = 41.0827

EPHEMERIS_TYPE = 0
CLASSIFICATION_TYPE = U
NORAD_CAT_ID   = 66434
ELEMENT_SET_NO = 999
REV_AT_EPOCH   = 463
BSTAR          = -.26381E-2
MEAN_MOTION_DOT = -.152529E-2
MEAN_MOTION_DDOT = 0

CCSDS_OMM_VERS = 2.0
CREATION_DATE  = 
ORIGINATOR     = 

OBJECT_NAME    = STARLINK-35502
OBJECT_ID      = 2025-259P
CENTER_NAME    = EARTH
REF_FRAME      = TEME
TIME_SYSTEM    = UTC
MEAN_ELEMENT_THEORY = SGP/SGP4

EPOCH          = 2025-12-02T12:00:05.998752
MEAN_MOTION    = 15.50529900
ECCENTRICITY   = .0001388
INCLINATION    = 42.9996
RA_OF_ASC_NODE = 107.1707
ARG_OF_PERICENTER = 259.2339
MEAN_ANOMALY   = 36.1524

EPHEMERIS_TYPE = 0
CLASSIFICATION_TYPE = U
NORAD_CAT_ID   = 66435
ELEMENT_SET_NO = 999
REV_AT_EPOCH   = 463
BSTAR          = .10642E-2
MEAN_MOTION_DOT = .62482E-3
MEAN_MOTION_DDOT = 0

CCSDS_OMM_VERS = 2.0
CREATION_DATE  = 
ORIGINATOR     = 

OBJECT_NAME    = STARLINK-35501
OBJECT_ID      = 2025-259Q
CENTER_NAME    = EARTH
REF_FRAME      = TEME
TIME_SYSTEM    = UTC
MEAN_ELEMENT_THEORY = SGP/SGP4

EPOCH          = 2025-12-02T12:00:05.998752
MEAN_MOTION    = 15.50524110
ECCENTRICITY   = .0001382
INCLINATION    = 42.9996
RA_OF_ASC_NODE = 107.1604
ARG_OF_PERICENTER = 258.3965
MEAN_ANOMALY   = 40.8142

EPHEMERIS_TYPE = 0
CLASSIFICATION_TYPE = U
NORAD_CAT_ID   = 66436
ELEMENT_SET_NO = 999
REV_AT_EPOCH   = 463
BSTAR          = .10802E-2
MEAN_MOTION_DOT = .6342E-3
MEAN_MOTION_DDOT = 0

CCSDS_OMM_VERS = 2.0
CREATION_DATE  = 
ORIGINATOR     = 

OBJECT_NAME    = STARLINK-35474
OBJECT_ID      = 2025-259R
CENTER_NAME    = EARTH
REF_FRAME      = TEME
TIME_SYSTEM    = UTC
MEAN_ELEMENT_THEORY = SGP/SGP4

EPOCH          = 2025-12-02T12:00:05.998752
MEAN_MOTION    = 15.50521905
ECCENTRICITY   = .0001412
INCLINATION    = 42.9996
RA_OF_ASC_NODE = 107.1557
ARG_OF_PERICENTER = 259.2112
MEAN_ANOMALY   = 41.9116

EPHEMERIS_TYPE = 0
CLASSIFICATION_TYPE = U
NORAD_CAT_ID   = 66437
ELEMENT_SET_NO = 999
REV_AT_EPOCH   = 463
BSTAR          = .10411E-2
MEAN_MOTION_DOT = .61088E-3
MEAN_MOTION_DDOT = 0

CCSDS_OMM_VERS = 2.0
CREATION_DATE  = 
ORIGINATOR     = 

OBJECT_NAME    = STARLINK-34681
OBJECT_ID      = 2025-259S
CENTER_NAME    = EARTH
REF_FRAME      = TEME
TIME_SYSTEM    = UTC
MEAN_ELEMENT_THEORY = SGP/SGP4

EPOCH          = 2025-12-02T12:00:05.998752
MEAN_MOTION    = 15.50532998
ECCENTRICITY   = .0001463
INCLINATION    = 42.9996
RA_OF_ASC_NODE = 107.1510
ARG_OF_PERICENTER = 256.3763
MEAN_ANOMALY   = 46.6533

EPHEMERIS_TYPE = 0
CLASSIFICATION_TYPE = U
NORAD_CAT_ID   = 66438
ELEMENT_SET_NO = 999
REV_AT_EPOCH   = 452
BSTAR          = .91099E-3
MEAN_MOTION_DOT = .53379E-3
MEAN_MOTION_DDOT = 0

CCSDS_OMM_VERS = 2.0
CREATION_DATE  = 
ORIGINATOR     = 

OBJECT_NAME    = STARLINK-35327
OBJECT_ID      = 2025-259T
CENTER_NAME    = EARTH
REF_FRAME      = TEME
TIME_SYSTEM    = UTC
MEAN_ELEMENT_THEORY = SGP/SGP4

EPOCH          = 2025-12-02T12:00:05.998752
MEAN_MOTION    = 15.50531697
ECCENTRICITY   = .0001301
INCLINATION    = 42.9996
RA_OF_ASC_NODE = 107.1671
ARG_OF_PERICENTER = 257.0813
MEAN_ANOMALY   = 40.2274

EPHEMERIS_TYPE = 0
CLASSIFICATION_TYPE = U
NORAD_CAT_ID   = 66439
ELEMENT_SET_NO = 999
REV_AT_EPOCH   = 463
BSTAR          = .10397E-2
MEAN_MOTION_DOT = .61024E-3
MEAN_MOTION_DDOT = 0

CCSDS_OMM_VERS = 2.0
CREATION_DATE  = 
ORIGINATOR     = 

OBJECT_NAME    = STARLINK-35405
OBJECT_ID      = 2025-259U
CENTER_NAME    = EARTH
REF_FRAME      = TEME
TIME_SYSTEM    = UTC
MEAN_ELEMENT_THEORY = SGP/SGP4

EPOCH          = 2025-12-02T12:00:05.998752
MEAN_MOTION    = 15.50537327
ECCENTRICITY   = .0001408
INCLINATION    = 42.9996
RA_OF_ASC_NODE = 107.1468
ARG_OF_PERICENTER = 257.0732
MEAN_ANOMALY   = 47.8826

EPHEMERIS_TYPE = 0
CLASSIFICATION_TYPE = U
NORAD_CAT_ID   = 66440
ELEMENT_SET_NO = 999
REV_AT_EPOCH   = 463
BSTAR          = .87017E-3
MEAN_MOTION_DOT = .50964E-3
MEAN_MOTION_DDOT = 0

CCSDS_OMM_VERS = 2.0
CREATION_DATE  = 
ORIGINATOR     = 

OBJECT_NAME    = STARLINK-35426
OBJECT_ID      = 2025-259V
CENTER_NAME    = EARTH
REF_FRAME      = TEME
TIME_SYSTEM    = UTC
MEAN_ELEMENT_THEORY = SGP/SGP4

EPOCH          = 2025-12-02T12:00:05.998752
MEAN_MOTION    = 15.50532537
ECCENTRICITY   = .0001374
INCLINATION    = 42.9996
RA_OF_ASC_NODE = 107.1413
ARG_OF_PERICENTER = 255.7422
MEAN_ANOMALY   = 51.1294

EPHEMERIS_TYPE = 0
CLASSIFICATION_TYPE = U
NORAD_CAT_ID   = 66441
ELEMENT_SET_NO = 999
REV_AT_EPOCH   = 463
BSTAR          = .88727E-3
MEAN_MOTION_DOT = .5197E-3
MEAN_MOTION_DDOT = 0

CCSDS_OMM_VERS = 2.0
CREATION_DATE  = 
ORIGINATOR     = 

OBJECT_NAME    = STARLINK-34724
OBJECT_ID      = 2025-259W
CENTER_NAME    = EARTH
REF_FRAME      = TEME
TIME_SYSTEM    = UTC
MEAN_ELEMENT_THEORY = SGP/SGP4

EPOCH          = 2025-12-02T12:00:05.998752
MEAN_MOTION    = 15.50600873
ECCENTRICITY   = .0001746
INCLINATION    = 42.9997
RA_OF_ASC_NODE = 107.1371
ARG_OF_PERICENTER = 270.1367
MEAN_ANOMALY   = 38.7426

EPHEMERIS_TYPE = 0
CLASSIFICATION_TYPE = U
NORAD_CAT_ID   = 66442
ELEMENT_SET_NO = 999
REV_AT_EPOCH   = 463
BSTAR          = -.15989E-2
MEAN_MOTION_DOT = -.9311E-3
MEAN_MOTION_DDOT = 0

CCSDS_OMM_VERS = 2.0
CREATION_DATE  = 
ORIGINATOR     = 

OBJECT_NAME    = STARLINK-35219
OBJECT_ID      = 2025-259X
CENTER_NAME    = EARTH
REF_FRAME      = TEME
TIME_SYSTEM    = UTC
MEAN_ELEMENT_THEORY = SGP/SGP4

EPOCH          = 2025-12-02T12:00:05.998752
MEAN_MOTION    = 15.50589184
ECCENTRICITY   = .0001672
INCLINATION    = 42.9993
RA_OF_ASC_NODE = 107.1315
ARG_OF_PERICENTER = 266.6264
MEAN_ANOMALY   = 44.1741

EPHEMERIS_TYPE = 0
CLASSIFICATION_TYPE = U
NORAD_CAT_ID   = 66443
ELEMENT_SET_NO = 999
REV_AT_EPOCH   = 452
BSTAR          = -.13358E-2
MEAN_MOTION_DOT = -.77961E-3
MEAN_MOTION_DDOT = 0

CCSDS_OMM_VERS = 2.0
CREATION_DATE  = 
ORIGINATOR     = 

OBJECT_NAME    = STARLINK-35360
OBJECT_ID      = 2025-259Y
CENTER_NAME    = EARTH
REF_FRAME      = TEME
TIME_SYSTEM    = UTC
MEAN_ELEMENT_THEORY = SGP/SGP4

EPOCH          = 2025-12-02T12:00:05.998752
MEAN_MOTION    = 15.50536589
ECCENTRICITY   = .0001487
INCLINATION    = 42.9996
RA_OF_ASC_NODE = 107.1171
ARG_OF_PERICENTER = 252.1181
MEAN_ANOMALY   = 64.3204

EPHEMERIS_TYPE = 0
CLASSIFICATION_TYPE = U
NORAD_CAT_ID   = 66444
ELEMENT_SET_NO = 999
REV_AT_EPOCH   = 463
BSTAR          = .92832E-3
MEAN_MOTION_DOT = .54416E-3
MEAN_MOTION_DDOT = 0

